NORAD_CAT_ID,OBJECT_NAME,OBJECT_TYPE,EPOCH,MEAN_MOTION,ECCENTRICITY,INCLINATION,RA_OF_ASC_NODE,ARG_OF_PERICENTER,MEAN_ANOMALY,BSTAR,MEAN_MOTION_DOT,MEAN_MOTION_DDOT,TLE_LINE0,TLE_LINE1,TLE_LINE2,SEMIMAJOR_AXIS,PERIOD,APOGEE,PERIGEE,DECAYED
54810.0,STARLINK-5408,PAYLOAD,2023-12-21 10:34:48,15.08842507,0.0001902,53.2201,56.7485,63.0093,297.1094,2.548e-05,1.17e-06,0.0,0 STARLINK-5408,1 54810U 22175BE  23355.44084406  .00000117  00000-0  25480-4 0  9995,2 54810  53.2201  56.7485 0001902  63.0093 297.1094 15.08842507 58039,6917.873,95.437,541.054,538.422,0.0
54810.0,STARLINK-5408,PAYLOAD,2023-12-22 10:25:36,15.08842031,0.0001518,53.218,52.2986,79.8827,280.2337,5.2311e-05,5.45e-06,0.0,0 STARLINK-5408,1 54810U 22175BE  23356.43444519  .00000545  00000-0  52311-4 0  9998,2 54810  53.2180  52.2986 0001518  79.8827 280.2337 15.08842031 58186,6917.874,95.437,540.789,538.689,0.0
54810.0,STARLINK-5408,PAYLOAD,2023-12-23 03:54:50,15.08805529,0.0001612,53.2198,49.0292,91.6101,268.5076,0.00041909,6.382e-05,0.0,0 STARLINK-5408,1 54810U 22175BE  23357.16308684  .00006382  00000-0  41909-3 0  9996,2 54810  53.2198  49.0292 0001612  91.6101 268.5076 15.08805529 56134,6917.986,95.44,540.966,538.736,0.0
54810.0,STARLINK-5408,PAYLOAD,2023-12-23 10:16:23,15.08841115,0.0001553,53.2185,47.8319,99.9242,260.1925,1.7008e-05,-1.7e-07,0.0,0 STARLINK-5408,1 54810U 22175BE  23357.42804535 -.00000017  00000-0  17008-4 0  9995,2 54810  53.2185  47.8319 0001553  99.9242 260.1925 15.08841115 56173,6917.877,95.437,540.816,538.668,0.0
54810.0,STARLINK-5408,PAYLOAD,2023-12-24 10:07:09,15.08845322,0.000156,53.2183,43.3727,102.8744,257.2422,1.4278e-05,-6.1e-07,0.0,0 STARLINK-5408,1 54810U 22175BE  23358.42164278 -.00000061  00000-0  14278-4 0  9994,2 54810  53.2183  43.3727 0001560 102.8744 257.2422 15.08845322 58483,6917.864,95.437,540.808,538.65,0.0
54810.0,STARLINK-5408,PAYLOAD,2023-12-25 03:36:24,15.08836217,0.0001684,53.2187,40.1026,104.8501,255.2678,1.5678e-05,-3.9e-07,0.0,0 STARLINK-5408,1 54810U 22175BE  23359.15028849 -.00000039  00000-0  15678-4 0  9998,2 54810  53.2187  40.1026 0001684 104.8501 255.2678 15.08836217 56431,6917.892,95.438,540.922,538.592,0.0
54810.0,STARLINK-5408,PAYLOAD,2023-12-25 09:57:56,15.08843421,0.0001668,53.2189,38.91,107.6545,252.463,4.9022e-05,4.92e-06,0.0,0 STARLINK-5408,1 54810U 22175BE  23359.41524249  .00000492  00000-0  49022-4 0  9994,2 54810  53.2189  38.9100 0001668 107.6545 252.4630 15.08843421 56478,6917.87,95.437,540.889,538.581,0.0
54810.0,STARLINK-5408,PAYLOAD,2023-12-26 08:13:21,15.08835953,0.0001547,53.2183,34.7436,97.8312,262.2856,-5.5181e-05,-1.166e-05,0.0,0 STARLINK-5408,1 54810U 22175BE  23360.34261310 -.00001166  00000-0 -55181-4 0  9999,2 54810  53.2183  34.7436 0001547  97.8312 262.2856 15.08835953 56612,6917.893,95.438,540.828,538.688,0.0
54810.0,STARLINK-5408,PAYLOAD,2023-12-27 09:39:31,15.08844523,0.0001631,53.2187,29.9886,88.0105,272.1074,1.9903e-05,2.9e-07,0.0,0 STARLINK-5408,1 54810U 22175BE  23361.40244930  .00000029  00000-0  19903-4 0  9993,2 54810  53.2187  29.9886 0001631  88.0105 272.1074 15.08844523 56779,6917.867,95.437,540.86,538.603,0.0
54810.0,STARLINK-5408,PAYLOAD,2023-12-28 01:33:23,15.08834764,0.0001683,53.2175,27.0199,95.5185,264.5999,7.281e-05,8.71e-06,0.0,0 STARLINK-5408,1 54810U 22175BE  23362.06485351  .00000871  00000-0  72810-4 0  9991,2 54810  53.2175  27.0199 0001683  95.5185 264.5999 15.08834764 56878,6917.896,95.438,540.926,538.597,0.0
54810.0,STARLINK-5408,PAYLOAD,2023-12-28 09:30:17,15.08850686,0.0001681,53.2187,25.5269,108.2179,251.8996,0.00020362,2.955e-05,0.0,0 STARLINK-5408,1 54810U 22175BE  23362.39603948  .00002955  00000-0  20362-3 0  9990,2 54810  53.2187  25.5269 0001681 108.2179 251.8996 15.08850686 56928,6917.848,95.437,540.876,538.55,0.0
54810.0,STARLINK-5408,PAYLOAD,2023-12-29 07:45:43,15.0883814,0.0001708,53.2184,21.3715,74.461,285.6571,-2.5402e-05,-6.92e-06,0.0,0 STARLINK-5408,1 54810U 22175BE  23363.32341698 -.00000692  00000-0 -25402-4 0  9994,2 54810  53.2184  21.3715 0001708  74.4610 285.6571 15.08838140 57060,6917.886,95.438,540.933,538.569,0.0
54810.0,STARLINK-5408,PAYLOAD,2023-12-29 22:04:11,15.08846941,0.0001483,53.2181,18.687,80.9841,279.1319,-0.00010842,-2.013e-05,0.0,0 STARLINK-5408,1 54810U 22175BE  23363.91957558 -.00002013  00000-0 -10842-3 0  9997,2 54810  53.2181  18.6870 0001483  80.9841 279.1319 15.08846941 59312,6917.859,95.437,540.75,538.698,0.0
54810.0,STARLINK-5408,PAYLOAD,2023-12-30 07:36:29,15.08846893,0.0001742,53.2181,16.9068,78.5518,281.567,-1.8798e-06,-3.18e-06,0.0,0 STARLINK-5408,1 54810U 22175BE  23364.31701032 -.00000318  00000-0 -18798-5 0  9992,2 54810  53.2181  16.9068 0001742  78.5518 281.5670 15.08846893 57214,6917.859,95.437,540.929,538.519,0.0
54810.0,STARLINK-5408,PAYLOAD,2023-12-31 04:16:31,15.08833322,0.0001724,53.2186,13.0413,100.596,259.5226,5.0318e-06,-2.08e-06,0.0,0 STARLINK-5408,1 54810U 22175BE  23365.17813722 -.00000208  00000-0  50318-5 0  9998,2 54810  53.2186  13.0413 0001724 100.5960 259.5226 15.08833322 57347,6917.901,95.438,540.958,538.573,0.0
54810.0,STARLINK-5408,PAYLOAD,2023-12-31 10:38:03,15.08835437,0.0001679,53.2184,11.8505,101.1134,259.0047,2.076e-05,4.2e-07,0.0,0 STARLINK-5408,1 54810U 22175BE  23365.44309617  .00000042  00000-0  20760-4 0  9993,2 54810  53.2184  11.8505 0001679 101.1134 259.0047 15.08835437 59541,6917.894,95.438,540.921,538.598,0.0
54810.0,STARLINK-5408,PAYLOAD,2024-01-01 05:42:41,15.08836886,0.0001672,53.2181,8.2816,98.7997,261.3184,-7.7452e-06,-4.11e-06,0.0,0 STARLINK-5408,1 54810U 22175BE  24001.23797873 -.00000411  00000-0 -77452-5 0  9996,2 54810  53.2181   8.2816 0001672  98.7997 261.3184 15.08836886 57505,6917.89,95.438,540.912,538.598,0.0
54810.0,STARLINK-5408,PAYLOAD,2024-01-02 05:33:28,15.08836569,0.0001648,53.2183,3.8201,99.8727,260.2451,5.0231e-05,5.11e-06,0.0,0 STARLINK-5408,1 54810U 22175BE  24002.23157920  .00000511  00000-0  50231-4 0  9994,2 54810  53.2183   3.8201 0001648  99.8727 260.2451 15.08836569 59811,6917.891,95.438,540.896,538.616,0.0
54810.0,STARLINK-5408,PAYLOAD,2024-01-03 03:48:52,15.08836282,0.0001604,53.2185,359.6594,95.1288,264.9887,1.7691e-05,-6e-08,0.0,0 STARLINK-5408,1 54810U 22175BE  24003.15894327 -.00000006  00000-0  17691-4 0  9998,2 54810  53.2185 359.6594 0001604  95.1288 264.9887 15.08836282 57794,6917.892,95.438,540.866,538.647,0.0
54810.0,STARLINK-5408,PAYLOAD,2024-01-03 08:35:01,15.08838677,0.0001586,53.2185,358.7678,92.3207,267.7967,3.6976e-05,3e-06,0.0,0 STARLINK-5408,1 54810U 22175BE  24003.35766164  .00000300  00000-0  36976-4 0  9990,2 54810  53.2185 358.7678 0001586  92.3207 267.7967 15.08838677 59989,6917.884,95.438,540.847,538.652,0.0
54810.0,STARLINK-5408,PAYLOAD,2024-01-04 05:15:02,15.08840332,0.0001608,53.2184,354.9003,94.4859,265.6317,2.5312e-05,1.15e-06,0.0,0 STARLINK-5408,1 54810U 22175BE  24004.21878182  .00000115  00000-0  25312-4 0  9996,2 54810  53.2184 354.9003 0001608  94.4859 265.6317 15.08840332 57951,6917.879,95.438,540.857,538.632,0.0
54810.0,STARLINK-5408,PAYLOAD,2024-01-04 22:44:17,15.08842378,0.0001723,53.219,351.6313,88.6354,271.4836,3.6959e-05,3e-06,0.0,0 STARLINK-5408,1 54810U 22175BE  24004.94742040  .00000300  00000-0  36959-4 0  9994,2 54810  53.2190 351.6313 0001723  88.6354 271.4836 15.08842378 60226,6917.873,95.437,540.93,538.546,0.0
54810.0,STARLINK-5408,PAYLOAD,2024-01-05 08:16:35,15.08844821,0.0001478,53.2178,349.8445,97.1971,262.9189,3.7457e-05,3.08e-06,0.0,0 STARLINK-5408,1 54810U 22175BE  24005.34485737  .00000308  00000-0  37457-4 0  9998,2 54810  53.2178 349.8445 0001478  97.1971 262.9189 15.08844821 58121,6917.866,95.437,540.753,538.708,0.0
54810.0,STARLINK-5408,PAYLOAD,2024-01-06 04:56:36,15.08844193,0.0001774,53.2185,345.9768,129.9435,230.1713,-3.917e-05,-9.12e-06,0.0,0 STARLINK-5408,1 54810U 22175BE  24006.20597821 -.00000912  00000-0 -39170-4 0  9999,2 54810  53.2185 345.9768 0001774 129.9435 230.1713 15.08844193 60419,6917.868,95.437,540.96,538.505,0.0
54810.0,STARLINK-5408,PAYLOAD,2024-01-07 03:12:00,15.08842105,0.0001525,53.2182,341.8169,83.9817,276.1349,2.222e-05,6.6e-07,0.0,0 STARLINK-5408,1 54810U 22175BE  24007.13333972  .00000066  00000-0  22220-4 0  9993,2 54810  53.2182 341.8169 0001525  83.9817 276.1349 15.08842105 58393,6917.874,95.437,540.794,538.684,0.0
54810.0,STARLINK-5408,PAYLOAD,2024-01-07 07:58:09,15.08845214,0.0001488,53.2183,340.9235,91.0718,269.0444,5.4386e-05,5.78e-06,0.0,0 STARLINK-5408,1 54810U 22175BE  24007.33205583  .00000578  00000-0  54386-4 0  9997,2 54810  53.2183 340.9235 0001488  91.0718 269.0444 15.08845214 60581,6917.864,95.437,540.759,538.7,0.0
54810.0,STARLINK-5408,PAYLOAD,2024-01-08 07:48:57,15.08840446,0.0001468,53.2187,336.4619,90.3903,269.7258,2.4748e-05,1.06e-06,0.0,0 STARLINK-5408,1 54810U 22175BE  24008.32566078  .00000106  00000-0  24748-4 0  9992,2 54810  53.2187 336.4619 0001468  90.3903 269.7258 15.08840446 58575,6917.879,95.438,540.76,538.728,0.0
54810.0,STARLINK-5408,PAYLOAD,2024-01-09 02:53:35,15.08839148,0.0001524,53.2187,332.8931,94.4913,265.6253,-2.637e-05,-7.08e-06,0.0,0 STARLINK-5408,1 54810U 22175BE  24009.12054508 -.00000708  00000-0 -26370-4 0  9994,2 54810  53.2187 332.8931 0001524  94.4913 265.6253 15.08839148 60852,6917.883,95.438,540.802,538.694,0.0
54810.0,STARLINK-5408,PAYLOAD,2024-01-09 20:22:49,15.08832368,0.0001441,53.2183,329.6216,111.3951,248.7195,2.4171e-05,9.7e-07,0.0,0 STARLINK-5408,1 54810U 22175BE  24009.84918870  .00000097  00000-0  24171-4 0  9990,2 54810  53.2183 329.6216 0001441 111.3951 248.7195 15.08832368 58803,6917.904,95.438,540.766,538.772,0.0
54810.0,STARLINK-5408,PAYLOAD,2024-01-09 21:58:12,15.08834636,0.0001392,53.2181,329.3262,97.1459,262.9692,4.5192e-05,4.31e-06,0.0,0 STARLINK-5408,1 54810U 22175BE  24009.91542731  .00000431  00000-0  45192-4 0  9995,2 54810  53.2181 329.3262 0001392  97.1459 262.9692 15.08834636 60979,6917.897,95.438,540.725,538.799,0.0
